#aV2008  5 17  0  0   .00000000      96 DD+AD WGS84 FIT  NGA
## 1479 518400.00000000   900.00000000 54603  .0000000000000
+   31     2  3  4  5  6  7  8  9 10 11 12 13 14 15 16 17 18
+         19 20 21 22 23 24 25 26 27 28 29 30 31 32  0  0  0
+          0  0  0  0  0  0  0  0  0  0  0  0  0  0  0  0  0
+          0  0  0  0  0  0  0  0  0  0  0  0  0  0  0  0  0
+          0  0  0  0  0  0  0  0  0  0  0  0  0  0  0  0  0
++         0  0  0  0  0  0  0  0  0  0  0  0  0  0  0  0  0
++         0  0  0  0  0  0  0  0  0  0  0  0  0  0  0  0  0
++         0  0  0  0  0  0  0  0  0  0  0  0  0  0  0  0  0
++         0  0  0  0  0  0  0  0  0  0  0  0  0  0  0  0  0
++         0  0  0  0  0  0  0  0  0  0  0  0  0  0  0  0  0
%c cc cc ccc ccc cccc cccc cccc cccc ccccc ccccc ccccc ccccc
%c cc cc ccc ccc cccc cccc cccc cccc ccccc ccccc ccccc ccccc
%f  0.0000000  0.000000000  0.00000000000  0.000000000000000
%f  0.0000000  0.000000000  0.00000000000  0.000000000000000
%i    0    0    0    0      0      0      0      0         0
%i    0    0    0    0      0      0      0      0         0
/*      NGA, ST. LOUIS,MO.                                  
/*   EPHEMERIS COMPUTED FROM  3 DAYS OF DATA                
/* CCCCCCCCCCCCCCCCCCCCCCCCCCCCCCCCCCCCCCCCCCCCCCCCCCCCCCCCC
/* CCCCCCCCCCCCCCCCCCCCCCCCCCCCCCCCCCCCCCCCCCCCCCCCCCCCCCCCC
*  2008  5 17 22 45   .00000000                                                 
P  2  -3924.317805  15003.712715  21404.868759    203.625066                    
V  2 -26482.429103  -7842.982320    287.598790       .027113                    
P  3   6877.779489 -22368.101684 -12479.915034    229.555820                    
V  3  12780.926515  -9671.960155  25241.871330       .053886                    
P  4 -16478.206796   9115.171283  18770.673081    -69.668237                    
V  4 -22442.781134  -8552.154935 -15109.418952      -.085279                    
P  5  15419.074328  17569.387099  12472.903234    774.988034                    
V  5   2543.964592  16286.489922 -25391.781254       .092030                    
P  6  15810.217891 -20860.037157  -4487.436838    129.530650                    
V  6   6719.368848  -1716.732009  30410.639934       .089154                    
P  7 -25571.805950  -7296.885480   -586.413000    -40.773137                    
V  7    101.762685  -2797.929573  31736.441086       .091569                    
P  8 -23441.446565    741.443393 -12993.055974   -153.426543                    
V  8 -14734.508340  -6734.749311  25912.455103      -.016746                    
P  9  17647.024636  14638.006511 -14173.067722    124.939697                    
V  9 -16715.491281  -2710.981726 -24565.310520       .017972                    
P 10     81.481681  25314.458912   7321.087309     -1.603693                    
V 10  -4753.509214  -8776.446724  30160.824916      -.002493                    
P 11 -20949.967432 -11755.516347 -11820.350183     25.542790                    
V 11  15161.945301  -2251.998682 -24622.883150      -.002731                    
P 12  12065.775241  21609.330620   9856.457956   -359.123373                    
V 12    515.374347  12561.085937 -28340.858381       .001058                    
P 13 -19463.126325   1369.466315  17890.124945    255.767000                    
V 13  16710.098046 -15680.935544  19273.335227       .017523                    
P 14  21420.306612 -14877.548943  -4646.131393   -265.654656                    
V 14  -3207.788467   5464.555495 -31714.146253       .042019                    
P 15    716.177110  18177.037332 -19329.667309   -112.579077                    
V 15 -18671.311971  16074.402303  14416.726644      -.056261                    
P 16   3555.205939 -23298.822958  12117.085570    124.778164                    
V 16   5539.724747  14496.765097  26605.174381      -.013940                    
P 17 -21254.975882  15076.087335  -4636.004876     39.038273                    
V 17   2409.212653  -6199.760255 -31093.417789      -.002107                    
P 18  16001.503248   5480.539993 -20380.326220   -176.975082                    
V 18   4203.096996  25917.104934   9824.709250       .038294                    
P 19   -525.120018 -17557.438105 -19780.343753     30.048200                    
V 19  20478.433618 -15040.927682  12930.899525       .009077                    
P 20 -13276.727018 -20152.768080  11019.254672    114.146138                    
V 20   -776.493238 -14433.484582 -26998.143645      -.008167                    
P 21  25911.740901   4164.808972  -5653.192119     64.011801                    
V 21   6016.361283   5102.755484  29733.984085      -.010851                    
P 22  12983.012188 -10642.690186 -20418.420549    211.170827                    
V 22   5957.439177  25677.554253  -9575.653936       .000563                    
P 23 -11350.419146  -9833.016445  21846.625090    354.260289                    
V 23  20350.339750 -19033.261503   1763.388781       .022098                    
P 24  21805.568103  13187.107206   7122.093913     94.642655                    
V 24  -9420.643672   -101.434949  30003.651250       .028157                    
P 25 -23511.353828  -9926.441148   7369.061836   -158.266096                    
V 25   9258.727636   -806.685999  30100.903659      -.264201                    
P 26  -3392.901735  18874.732774 -18607.365115    255.391989                    
V 26 -18048.343037  13927.930165  18423.444836       .080266                    
P 27 -26046.226903  -5135.675534  -1475.599286    189.142656                    
V 27  -2036.212120  -3008.258845  31789.690164       .026737                    
P 28 -13280.292510   8144.617874 -21081.898586    -19.106310                    
V 28  -6353.243958 -26993.127421  -6637.679944      -.003967                    
P 29  18023.034921   2151.850405  19501.308055    -43.110783                    
V 29 -17356.182247  17362.986923  14240.389102       .002174                    
P 30  16179.855240  11164.296013  17570.165461     76.894174                    
V 30   4336.708945  22648.878947 -17939.570268       .017319                    
P 31  14459.329484 -10118.961746  20088.204062    -20.214757                    
V 31  23688.173155   8054.860909 -13019.949990      -.013020                    
P 32  -1998.051957 -26401.144335  -2728.220231    286.263085                    
V 32   2966.964584   3569.655820 -31573.263972       .053026                    
EOF
